[{"OBJECT_NAME":"KOSEN-1","OBJECT_ID":"2021-102H","EPOCH":"2026-03-09T22:29:54.100608","MEAN_MOTION":15.25323573,"ECCENTRICITY":0.00138659,"INCLINATION":97.3334,"RA_OF_ASC_NODE":113.0569,"ARG_OF_PERICENTER":191.9191,"MEAN_ANOMALY":168.1721,"EPHEMERIS_TYPE":0,"CLASSIFICATION_TYPE":"U","NORAD_CAT_ID":49402,"ELEMENT_SET_NO":999,"REV_AT_EPOCH":23888,"BSTAR":0.00040411561,"MEAN_MOTION_DOT":0.00010142,"MEAN_MOTION_DDOT":0},{"OBJECT_NAME":"STARLINK-31721","OBJECT_ID":"2024-074C","EPOCH":"2026-03-09T03:25:01.802208","MEAN_MOTION":15.27570564,"ECCENTRICITY":9.752e-5,"INCLINATION":43.0039,"RA_OF_ASC_NODE":346.3569,"ARG_OF_PERICENTER":263.6661,"MEAN_ANOMALY":96.4079,"EPHEMERIS_TYPE":0,"CLASSIFICATION_TYPE":"U","NORAD_CAT_ID":59536,"ELEMENT_SET_NO":999,"REV_AT_EPOCH":10593,"BSTAR":-3.877514e-6,"MEAN_MOTION_DOT":-3.69e-6,"MEAN_MOTION_DDOT":0}]
